{
    "links": {
        "self": "http://www.neowsapp.com/rest/v1/neo/3557537?api_key=iIulBulltgU6a56xZRHN4H3l9WmuAYTsLGpBGhQ2"
    },
    "id": "3557537",
    "neo_reference_id": "3557537",
    "name": "(2011 CM50)",
    "designation": "2011 CM50",
    "nasa_jpl_url": "http://ssd.jpl.nasa.gov/sbdb.cgi?sstr=3557537",
    "absolute_magnitude_h": 22.9,
    "estimated_diameter": {
        "kilometers": {
            "estimated_diameter_min": 0.0699125232,
            "estimated_diameter_max": 0.1563291544
        },
        "meters": {
            "estimated_diameter_min": 69.9125232246,
            "estimated_diameter_max": 156.3291544087
        },
        "miles": {
            "estimated_diameter_min": 0.0434416145,
            "estimated_diameter_max": 0.097138403
        },
        "feet": {
            "estimated_diameter_min": 229.3718026961,
            "estimated_diameter_max": 512.8909429502
        }
    },
    "is_potentially_hazardous_asteroid": false,
    "close_approach_data": [
        {
            "close_approach_date": "2007-02-09",
            "close_approach_date_full": "2007-Feb-09 17:11",
            "epoch_date_close_approach": 1171041060000,
            "relative_velocity": {
                "kilometers_per_second": "11.6768881411",
                "kilometers_per_hour": "42036.7973077994",
                "miles_per_hour": "26120.0310827268"
            },
            "miss_distance": {
                "astronomical": "0.4159444874",
                "lunar": "161.8024055986",
                "kilometers": "62224409.353281838",
                "miles": "38664455.0775238444"
            },
            "orbiting_body": "Earth"
        },
        {
            "close_approach_date": "2009-02-15",
            "close_approach_date_full": "2009-Feb-15 19:29",
            "epoch_date_close_approach": 1234726140000,
            "relative_velocity": {
                "kilometers_per_second": "10.9258235298",
                "kilometers_per_hour": "39332.9647072382",
                "miles_per_hour": "24439.9746537837"
            },
            "miss_distance": {
                "astronomical": "0.2613181835",
                "lunar": "101.6527733815",
                "kilometers": "39092643.643869145",
                "miles": "24291042.369698401"
            },
            "orbiting_body": "Earth"
        },
        {
            "close_approach_date": "2011-02-19",
            "close_approach_date_full": "2011-Feb-19 12:33",
            "epoch_date_close_approach": 1298118780000,
            "relative_velocity": {
                "kilometers_per_second": "10.6466840118",
                "kilometers_per_hour": "38328.062442381",
                "miles_per_hour": "23815.5674659339"
            },
            "miss_distance": {
                "astronomical": "0.1807628955",
                "lunar": "70.3167663495",
                "kilometers": "27041744.141832585",
                "miles": "16802960.646096273"
            },
            "orbiting_body": "Earth"
        },
        {
            "close_approach_date": "2013-02-21",
            "close_approach_date_full": "2013-Feb-21 16:05",
            "epoch_date_close_approach": 1361462700000,
            "relative_velocity": {
                "kilometers_per_second": "11.4090198373",
                "kilometers_per_hour": "41072.4714144218",
                "miles_per_hour": "25520.8364741445"
            },
            "miss_distance": {
                "astronomical": "0.258969245",
                "lunar": "100.739036305",
                "kilometers": "38741247.44750815",
                "miles": "24072694.89818647"
            },
            "orbiting_body": "Earth"
        },
        {
            "close_approach_date": "2015-02-26",
            "close_approach_date_full": "2015-Feb-26 05:55",
            "epoch_date_close_approach": 1424930100000,
            "relative_velocity": {
                "kilometers_per_second": "12.8473545001",
                "kilometers_per_hour": "46250.4762004568",
                "miles_per_hour": "28738.2472813339"
            },
            "miss_distance": {
                "astronomical": "0.4147890015",
                "lunar": "161.3529215835",
                "kilometers": "62051551.123826805",
                "miles": "38557045.954367709"
            },
            "orbiting_body": "Earth"
        }
    ],
    "orbital_data": {
        "orbit_id": "10",
        "orbit_determination_date": "2017-04-06 08:54:26",
        "first_observation_date": "2011-02-12",
        "last_observation_date": "2011-03-05",
        "data_arc_in_days": 21,
        "observations_used": 34,
        "orbit_uncertainty": "8",
        "minimum_orbit_intersection": ".180713",
        "jupiter_tisserand_invariant": "4.310",
        "epoch_osculation": "2455612.5",
        "eccentricity": ".2564159254934407",
        "semi_major_axis": "1.570912992072512",
        "inclination": "20.01963643338339",
        "ascending_node_longitude": "328.2951390035994",
        "orbital_period": "719.1618221476768",
        "perihelion_distance": "1.168105883340569",
        "perihelion_argument": "186.1367110396493",
        "aphelion_distance": "1.973720100804456",
        "perihelion_time": "2455616.907083522322",
        "mean_anomaly": "357.7938900270069",
        "mean_motion": ".5005827463489512",
        "equinox": "J2000",
        "orbit_class": {
            "orbit_class_type": "AMO",
            "orbit_class_description": "Near-Earth asteroid orbits similar to that of 1221 Amor",
            "orbit_class_range": "1.017 AU < q (perihelion) < 1.3 AU"
        }
    },
    "is_sentry_object": false
}